{
    "links": {
        "self": "http://www.neowsapp.com/rest/v1/neo/3551069?api_key=iIulBulltgU6a56xZRHN4H3l9WmuAYTsLGpBGhQ2"
    },
    "id": "3551069",
    "neo_reference_id": "3551069",
    "name": "(2010 VZ75)",
    "designation": "2010 VZ75",
    "nasa_jpl_url": "http://ssd.jpl.nasa.gov/sbdb.cgi?sstr=3551069",
    "absolute_magnitude_h": 25.1,
    "estimated_diameter": {
        "kilometers": {
            "estimated_diameter_min": 0.0253837029,
            "estimated_diameter_max": 0.0567596853
        },
        "meters": {
            "estimated_diameter_min": 25.3837029364,
            "estimated_diameter_max": 56.7596852866
        },
        "miles": {
            "estimated_diameter_min": 0.0157726969,
            "estimated_diameter_max": 0.0352688224
        },
        "feet": {
            "estimated_diameter_min": 83.279867942,
            "estimated_diameter_max": 186.2194458756
        }
    },
    "is_potentially_hazardous_asteroid": false,
    "close_approach_data": [
        {
            "close_approach_date": "1991-10-21",
            "close_approach_date_full": "1991-Oct-21 15:32",
            "epoch_date_close_approach": 688059120000,
            "relative_velocity": {
                "kilometers_per_second": "6.8295315606",
                "kilometers_per_hour": "24586.3136181506",
                "miles_per_hour": "15276.9791479003"
            },
            "miss_distance": {
                "astronomical": "0.1906367946",
                "lunar": "74.1577130994",
                "kilometers": "28518858.415787502",
                "miles": "17720796.8952994476"
            },
            "orbiting_body": "Earth"
        },
        {
            "close_approach_date": "2010-10-27",
            "close_approach_date_full": "2010-Oct-27 09:27",
            "epoch_date_close_approach": 1288171620000,
            "relative_velocity": {
                "kilometers_per_second": "6.1739702673",
                "kilometers_per_hour": "22226.2929621595",
                "miles_per_hour": "13810.5540908485"
            },
            "miss_distance": {
                "astronomical": "0.1793434156",
                "lunar": "69.7645886684",
                "kilometers": "26829392.972284772",
                "miles": "16671011.7478909736"
            },
            "orbiting_body": "Earth"
        }
    ],
    "orbital_data": {
        "orbit_id": "10",
        "orbit_determination_date": "2017-04-06 08:55:48",
        "first_observation_date": "2010-11-08",
        "last_observation_date": "2010-12-06",
        "data_arc_in_days": 28,
        "observations_used": 17,
        "orbit_uncertainty": "7",
        "minimum_orbit_intersection": ".173893",
        "jupiter_tisserand_invariant": "4.424",
        "epoch_osculation": "2459000.5",
        "eccentricity": ".2525307111189147",
        "semi_major_axis": "1.532785970729261",
        "inclination": "11.56935879723337",
        "ascending_node_longitude": "48.59881298744629",
        "orbital_period": "693.1395850026344",
        "perihelion_distance": "1.145710439547904",
        "perihelion_argument": "326.0007256882851",
        "aphelion_distance": "1.919861501910617",
        "perihelion_time": "2458938.950655760474",
        "mean_anomaly": "31.9672464329753",
        "mean_motion": ".5193759060790502",
        "equinox": "J2000",
        "orbit_class": {
            "orbit_class_type": "AMO",
            "orbit_class_description": "Near-Earth asteroid orbits similar to that of 1221 Amor",
            "orbit_class_range": "1.017 AU < q (perihelion) < 1.3 AU"
        }
    },
    "is_sentry_object": false
}